QBEE50-LTU-OC           
1 42708U 98067LR  17266.41588447  .00017937  00000-0  23605-3 0  9990
2 42708  51.6374 266.3944 0001779   2.8623 357.2380 15.58533078 20104
ALTAIR PATHFINDER       
1 42711U 98067LS  17266.54373951  .00011536  00000-0  16229-3 0  9993
2 42711  51.6385 266.4960 0003189 277.7610  82.3020 15.57159905 19821
SHARC                   
1 42712U 98067LT  17266.09603402  .00005374  00000-0  79982-4 0  9990
2 42712  51.6393 268.7626 0001447 294.3697  65.7143 15.56905653 19997
ZA-AEROSAT              
1 42713U 98067LU  17266.38218811  .00013313  00000-0  18177-3 0  9999
2 42713  51.6385 266.9211 0001102 295.5397  64.5481 15.57813330 19800
LINK                    
1 42714U 98067LV  17266.48255995  .00022763  00000-0  29179-3 0  9998
2 42714  51.6376 266.0871 0001256 331.0850  29.0073 15.59061081 19931
CSUNSAT 1               
1 42715U 98067LW  17266.51604921  .00014746  00000-0  19982-3 0  9993
2 42715  51.6384 266.3105 0002940 267.3970  92.6685 15.57917077 19825
UPSAT                   
1 42716U 98067LX  17266.40324282  .00021503  00000-0  27613-3 0  9990
2 42716  51.6386 266.3116 0004943 354.2057   5.8878 15.59043498 19949
SPACECUBE               
1 42717U 98067LY  17266.42667057  .00017527  00000-0  23201-3 0  9993
2 42717  51.6385 266.4670 0004799 352.4021   7.6898 15.58387721 19182
HOOPOE                  
1 42718U 98067LZ  17266.54309910  .00018566  00000-0  24224-3 0  9998
2 42718  51.6378 265.7457 0004777 353.2336   6.8592 15.58728347 19202
CHALLENGER              
1 42721U 98067MA  17266.47345555  .00026247  00000-0  32902-3 0  9996
2 42721  51.6371 266.0246 0006929 329.4087  30.6501 15.59542651 18890
NJUST-1                 
1 42722U 98067MB  17266.47076213  .00014916  00000-0  20451-3 0  9995
2 42722  51.6383 266.7590 0007017 325.0412  35.0119 15.57572345 18880
UNSW-ECO                
1 42723U 98067MC  17266.37942227  .00019715  00000-0  25898-3 0  9994
2 42723  51.6387 266.9020 0006844 326.9671  33.0893 15.58489810 18858
DUTHSAT                 
1 42724U 98067MD  17266.48453831  .00025229  00000-0  31935-3 0  9991
2 42724  51.6384 266.1031 0006244 334.8256  25.2431 15.59314135 18793
LILACSAT-1              
1 42725U 98067ME  17266.53417723  .00016597  00000-0  22490-3 0  9992
2 42725  51.6384 266.4349 0006121 331.0213  29.0439 15.57800014 18799
NSIGHT-1                
1 42726U 98067MF  17266.44356892  .00008816  00000-0  12854-3 0  9990
2 42726  51.6392 267.3317 0006239 328.4068  31.6548 15.56532036 18786
SNUSAT-1                
1 42727U 98067MG  17266.53176742  .00017067  00000-0  23052-3 0  9995
2 42727  51.6375 266.4100 0006394 286.8184  73.2107 15.57861103 18768
QBITO                   
1 42728U 98067MH  17266.00182224  .00016904  00000-0  22559-3 0  9990
2 42728  51.6396 268.8847 0003879 346.9486  13.1406 15.58203181 18520
AALTO-2                 
1 42729U 98067MJ  17265.42448465  .00015814  00000-0  21175-3 0  9990
2 42729  51.6386 271.7747 0003849 344.5918  15.4956 15.58171048 18445
SUSAT                   
1 42730U 98067MK  17266.52067716  .00016254  00000-0  21853-3 0  9992
2 42730  51.6383 266.3435 0003826 345.6610  14.4273 15.58037377 18609
I-INSPIRE II            
1 42731U 98067ML  17266.37409513  .00021423  00000-0  27864-3 0  9993
2 42731  51.6373 266.8567 0005307 273.6277  86.4109 15.58704088 18635
POLYITAN-2-SAU          
1 42732U 98067MM  17266.38294686  .00018293  00000-0  24255-3 0  9990
2 42732  51.6380 266.9149 0005622 271.0176  89.0172 15.58306090 18631
SNUSAT-1B               
1 42733U 98067MN  17266.45672415  .00016365  00000-0  21959-3 0  9995
2 42733  51.6378 266.6591 0005608 273.3159  86.7192 15.58078145 18641
EXALTA-1                
1 42734U 98067MP  17266.50328168  .00018854  00000-0  24683-3 0  9997
2 42734  51.6376 266.2208 0007522 299.6914  60.3330 15.58609734 18600
AOXIANG-1               
1 42735U 98067MQ  17266.21086713  .00014757  00000-0  20188-3 0  9997
2 42735  51.6380 268.0223 0007554 319.8541  40.1892 15.57638661 19979
BEEAGLESAT              
1 42736U 98067MR  17266.52780857  .00015469  00000-0  20977-3 0  9999
2 42736  51.6379 266.3892 0007418 321.0166  39.0291 15.57832462 18714
ATLANTIS                
1 42737U 98067MS  17266.48469764  .00041252  00000-0  47619-3 0  9997
2 42737  51.6363 265.3431 0006868 330.0592  30.0008 15.61466198 18617
PROGRESS-MS 06          
1 42756U 17033A   17265.54184846  .00001627  00000-0  31715-4 0  9996
2 42756  51.6412 272.9985 0003764 310.8379 192.1282 15.54229220 15584
ISS DEB (ROSA)          
1 42813U 98067MT  17266.47800467  .00042722  00000-0  52039-3 0  9995
2 42813  51.6372 266.8040 0003401 333.1417  26.9400 15.60066252 13996
SOYUZ-MS 05             
1 42898U 17043A   17265.54184846  .00001627  00000-0  31715-4 0  9994
2 42898  51.6412 272.9985 0003764 310.8379 192.1282 15.54229220  8695
DRAGON CRS-12           
1 42904U 17045A   17260.43667123  .35747718  00000-0  35781+0 0  9999
2 42904  51.6403 298.4787 0004318 303.3822  56.5513 15.57297920  5256
SOYUZ-MS 06             
1 42937U 17054A   17265.54184846  .00001627  00000-0  31715-4 0  9990
2 42937  51.6412 272.9985 0003764 310.8379 192.1282 15.54229220  1502
